{
    "links": {
        "self": "http://www.neowsapp.com/rest/v1/neo/3719994?api_key=iIulBulltgU6a56xZRHN4H3l9WmuAYTsLGpBGhQ2"
    },
    "id": "3719994",
    "neo_reference_id": "3719994",
    "name": "(2015 KP120)",
    "designation": "2015 KP120",
    "nasa_jpl_url": "http://ssd.jpl.nasa.gov/sbdb.cgi?sstr=3719994",
    "absolute_magnitude_h": 24.3,
    "estimated_diameter": {
        "kilometers": {
            "estimated_diameter_min": 0.0366906138,
            "estimated_diameter_max": 0.0820427065
        },
        "meters": {
            "estimated_diameter_min": 36.6906137531,
            "estimated_diameter_max": 82.0427064882
        },
        "miles": {
            "estimated_diameter_min": 0.0227984834,
            "estimated_diameter_max": 0.0509789586
        },
        "feet": {
            "estimated_diameter_min": 120.3760332259,
            "estimated_diameter_max": 269.1689931548
        }
    },
    "is_potentially_hazardous_asteroid": false,
    "close_approach_data": [
        {
            "close_approach_date": "2014-12-17",
            "close_approach_date_full": "2014-Dec-17 14:38",
            "epoch_date_close_approach": 1418827080000,
            "relative_velocity": {
                "kilometers_per_second": "17.0510883937",
                "kilometers_per_hour": "61383.9182173808",
                "miles_per_hour": "38141.5796279053"
            },
            "miss_distance": {
                "astronomical": "0.4372454593",
                "lunar": "170.0884836677",
                "kilometers": "65410989.378451691",
                "miles": "40644504.0890716958"
            },
            "orbiting_body": "Earth"
        },
        {
            "close_approach_date": "2015-05-18",
            "close_approach_date_full": "2015-May-18 11:09",
            "epoch_date_close_approach": 1431947340000,
            "relative_velocity": {
                "kilometers_per_second": "15.0853311414",
                "kilometers_per_hour": "54307.1921090508",
                "miles_per_hour": "33744.3772302044"
            },
            "miss_distance": {
                "astronomical": "0.174627305",
                "lunar": "67.930021645",
                "kilometers": "26123872.87184035",
                "miles": "16232621.88588283"
            },
            "orbiting_body": "Earth"
        }
    ],
    "orbital_data": {
        "orbit_id": "4",
        "orbit_determination_date": "2019-07-17 06:10:41",
        "first_observation_date": "2015-05-21",
        "last_observation_date": "2015-05-26",
        "data_arc_in_days": 5,
        "observations_used": 23,
        "orbit_uncertainty": "9",
        "minimum_orbit_intersection": ".171998",
        "jupiter_tisserand_invariant": "4.754",
        "epoch_osculation": "2457166.5",
        "eccentricity": ".2070134351234305",
        "semi_major_axis": "1.338444112556656",
        "inclination": "29.17123540819927",
        "ascending_node_longitude": "62.40179392807249",
        "orbital_period": "565.5861805462877",
        "perihelion_distance": "1.061368199095571",
        "perihelion_argument": "110.0380005023943",
        "aphelion_distance": "1.61552002601774",
        "perihelion_time": "2457090.083240632682",
        "mean_anomaly": "48.63986129516659",
        "mean_motion": ".6365077726126259",
        "equinox": "J2000",
        "orbit_class": {
            "orbit_class_type": "AMO",
            "orbit_class_description": "Near-Earth asteroid orbits similar to that of 1221 Amor",
            "orbit_class_range": "1.017 AU < q (perihelion) < 1.3 AU"
        }
    },
    "is_sentry_object": false
}